[{"OBJECT_NAME":"STARLINK-30384","OBJECT_ID":"2023-134D","EPOCH":"2026-03-09T22:00:01.999584","MEAN_MOTION":15.17829384,"ECCENTRICITY":0.00022152,"INCLINATION":43,"RA_OF_ASC_NODE":195.5861,"ARG_OF_PERICENTER":278.8011,"MEAN_ANOMALY":78.3931,"EPHEMERIS_TYPE":0,"CLASSIFICATION_TYPE":"U","NORAD_CAT_ID":57774,"ELEMENT_SET_NO":999,"REV_AT_EPOCH":572,"BSTAR":0.0038674062,"MEAN_MOTION_DOT":0.0008037,"MEAN_MOTION_DDOT":0},{"OBJECT_NAME":"FLOCK 4H-15","OBJECT_ID":"2025-276BE","EPOCH":"2026-03-09T17:00:11.631744","MEAN_MOTION":15.18339872,"ECCENTRICITY":0.00044925,"INCLINATION":97.4287,"RA_OF_ASC_NODE":143.9241,"ARG_OF_PERICENTER":23.8137,"MEAN_ANOMALY":336.3304,"EPHEMERIS_TYPE":0,"CLASSIFICATION_TYPE":"U","NORAD_CAT_ID":66718,"ELEMENT_SET_NO":999,"REV_AT_EPOCH":1531,"BSTAR":0.00037246212,"MEAN_MOTION_DOT":7.584e-5,"MEAN_MOTION_DDOT":0}]
